$$SOE
2459580.500000000, A.D. 2022-Jan-01 00:00:00.0000, -9.900854021966782E+07, -3.974486371255343E+08, -3.335959785350791E+07,
2459587.500000000, A.D. 2022-Jan-08 00:00:00.0000, -8.932229014585671E+07, -3.990370563473284E+08, -3.557686840698940E+07,
2459594.500000000, A.D. 2022-Jan-15 00:00:00.0000, -7.957334452796020E+07, -4.003453368715374E+08, -3.776916041082314E+07,
2459601.500000000, A.D. 2022-Jan-22 00:00:00.0000, -6.976832299853127E+07, -4.013714564185520E+08, -3.993483079328954E+07,
2459608.500000000, A.D. 2022-Jan-29 00:00:00.0000, -5.991392203218366E+07, -4.021134904124014E+08, -4.207223393168896E+07,
2459615.500000000, A.D. 2022-Feb-05 00:00:00.0000, -5.001691949966980E+07, -4.025696148161385E+08, -4.417972131278592E+07,
2459622.500000000, A.D. 2022-Feb-12 00:00:00.0000, -4.008417706709115E+07, -4.027381102977417E+08, -4.625564150980613E+07,
2459629.500000000, A.D. 2022-Feb-19 00:00:00.0000, -3.012264175687358E+07, -4.026173653673579E+08, -4.829834016401523E+07,
2459636.500000000, A.D. 2022-Feb-26 00:00:00.0000, -2.013934797326741E+07, -4.022058792179936E+08, -5.030615991293275E+07,
2459643.500000000, A.D. 2022-Mar-05 00:00:00.0000, -1.014141982357077E+07, -4.015022648954134E+08, -5.227744033365837E+07,
2459650.500000000, A.D. 2022-Mar-12 00:00:00.0000, -1.360735027432952E+05, -4.005052528718078E+08, -5.421051793068677E+07,
2459657.500000000, A.D. 2022-Mar-19 00:00:00.0000, 9.869380341587331E+06, -3.992136950041245E+08, -5.610372617635477E+07,
2459664.500000000, A.D. 2022-Mar-26 00:00:00.0000, 1.986753429975708E+07, -3.976265688928981E+08, -5.795539561083227E+07,
2459671.500000000, A.D. 2022-Apr-02 00:00:00.0000, 2.985088202876646E+07, -3.957429827090608E+08, -5.976385401740623E+07,
2459678.500000000, A.D. 2022-Apr-09 00:00:00.0000, 3.981181650576450E+07, -3.935621804967045E+08, -6.152742670300944E+07,
2459685.500000000, A.D. 2022-Apr-16 00:00:00.0000, 4.974262907789621E+07, -3.910835473102245E+08, -6.324443686875691E+07,
2459692.500000000, A.D. 2022-Apr-23 00:00:00.0000, 5.963550805430123E+07, -3.883066131120096E+08, -6.491320587053221E+07,
2459699.500000000, A.D. 2022-Apr-30 00:00:00.0000, 6.948253498662414E+07, -3.852310576826999E+08, -6.653205338582771E+07,
2459706.500000000, A.D. 2022-May-07 00:00:00.0000, 7.927568172181273E+07, -3.818567185228307E+08, -6.809929793320458E+07,
2459713.500000000, A.D. 2022-May-14 00:00:00.0000, 8.900680964227724E+07, -3.781835987158648E+08, -6.961325762883164E+07,
2459720.500000000, A.D. 2022-May-21 00:00:00.0000, 9.866766909058584E+07, -3.742118740053293E+08, -7.107225093861616E+07,
2459727.500000000, A.D. 2022-May-28 00:00:00.0000, 1.082498985291418E+08, -3.699419000582502E+08, -7.247459746850681E+07,
2459734.500000000, A.D. 2022-Jun-04 00:00:00.0000, 1.177450237412290E+08, -3.653742202414604E+08, -7.381861885277259E+07,
2459741.500000000, A.D. 2022-Jun-11 00:00:00.0000, 1.271444572476792E+08, -3.605095739204597E+08, -7.510263976204287E+07,
2459748.500000000, A.D. 2022-Jun-18 00:00:00.0000, 1.364394980091413E+08, -3.553489052761071E+08, -7.632498904180932E+07,
2459755.500000000, A.D. 2022-Jun-25 00:00:00.0000, 1.456213314780860E+08, -3.498933726778204E+08, -7.748400099487144E+07,
2459762.500000000, A.D. 2022-Jul-02 00:00:00.0000, 1.546810301735115E+08, -3.441443586832319E+08, -7.857801683394009E+07,
2459769.500000000, A.D. 2022-Jul-09 00:00:00.0000, 1.636095552107893E+08, -3.381034804915597E+08, -7.960538633498262E+07,
2459776.500000000, A.D. 2022-Jul-16 00:00:00.0000, 1.723977587754720E+08, -3.317725997710845E+08, -8.056446960718913E+07,
2459783.500000000, A.D. 2022-Jul-23 00:00:00.0000, 1.810363853883026E+08, -3.251538317823876E+08, -8.145363878039034E+07,
2459790.500000000, A.D. 2022-Jul-30 00:00:00.0000, 1.895160720944923E+08, -3.182495571447107E+08, -8.227127989980714E+07,
2459797.500000000, A.D. 2022-Aug-06 00:00:00.0000, 1.978273512309913E+08, -3.110624355873752E+08, -8.301579531388335E+07,
2459804.500000000, A.D. 2022-Aug-13 00:00:00.0000, 2.059606550087084E+08, -3.035954189212763E+08, -8.368560626462428E+07,
2459811.500000000, A.D. 2022-Aug-20 00:00:00.0000, 2.139063204035593E+08, -2.958517637206819E+08, -8.427915558852544E+07,
2459818.500000000, A.D. 2022-Aug-27 00:00:00.0000, 2.216545944905281E+08, -2.878350444244079E+08, -8.479491060513051E+07,
2459825.500000000, A.D. 2022-Sep-03 00:00:00.0000, 2.291956405374428E+08, -2.795491669446678E+08, -8.523136623671702E+07,
2459832.500000000, A.D. 2022-Sep-10 00:00:00.0000, 2.365195450195827E+08, -2.709983827319255E+08, -8.558704837701243E+07,
2459839.500000000, A.D. 2022-Sep-17 00:00:00.0000, 2.436163256571888E+08, -2.621873032628379E+08, -8.586051752265380E+07,
2459846.500000000, A.D. 2022-Sep-24 00:00:00.0000, 2.504759406106018E+08, -2.531209149586614E+08, -8.605037268674615E+07,
2459853.500000000, A.D. 2022-Oct-01 00:00:00.0000, 2.570882991506094E+08, -2.438045945031557E+08, -8.615525562710930E+07,
2459860.500000000, A.D. 2022-Oct-08 00:00:00.0000, 2.634432742934891E+08, -2.342441239770153E+08, -8.617385539281186E+07,
2459867.500000000, A.D. 2022-Oct-15 00:00:00.0000, 2.695307165527987E+08, -2.244457045425299E+08, -8.610491301434863E+07,
2459874.500000000, A.D. 2022-Oct-22 00:00:00.0000, 2.753404667074113E+08, -2.144159702846939E+08, -8.594722628159074E+07,
2459881.500000000, A.D. 2022-Oct-29 00:00:00.0000, 2.808623701623086E+08, -2.041620047090427E+08, -8.569965505410022E+07,
2459888.500000000, A.D. 2022-Nov-05 00:00:00.0000, 2.860862950814841E+08, -1.936913570488264E+08, -8.536112707446276E+07,
2459895.500000000, A.D. 2022-Nov-12 00:00:00.0000, 2.910021524076783E+08, -1.830120569977376E+08, -8.493064400177819E+07,
2459902.500000000, A.D. 2022-Nov-19 00:00:00.0000, 2.955999171246974E+08, -1.721326286930034E+08, -8.440728767562141E+07,
2459909.500000000, A.D. 2022-Nov-26 00:00:00.0000, 2.998696510937777E+08, -1.610621042022487E+08, -8.379022666206256E+07,
2459916.500000000, A.D. 2022-Dec-03 00:00:00.0000, 3.038015276923480E+08, -1.498100363667786E+08, -8.307872308952871E+07,
2459923.500000000, A.D. 2022-Dec-10 00:00:00.0000, 3.073858583545162E+08, -1.383865108088137E+08, -8.227213976506415E+07,
2459930.500000000, A.D. 2022-Dec-17 00:00:00.0000, 3.106131210808645E+08, -1.268021569393927E+08, -8.136994755908760E+07,
2459937.500000000, A.D. 2022-Dec-24 00:00:00.0000, 3.134739910550231E+08, -1.150681578299649E+08, -8.037173305273964E+07,
2459944.500000000, A.D. 2022-Dec-31 00:00:00.0000, 3.159593737348509E+08, -1.031962586210079E+08, -7.927720644432996E+07,
2459951.500000000, A.D. 2023-Jan-07 00:00:00.0000, 3.180604405354259E+08, -9.119877227064639E+07, -7.808620961483203E+07,
2459958.500000000, A.D. 2023-Jan-14 00:00:00.0000, 3.197686651139565E+08, -7.908858190468693E+07, -7.679872409434564E+07,
2459965.500000000, A.D. 2023-Jan-21 00:00:00.0000, 3.210758595564013E+08, -6.687914269210181E+07, -7.541487908323829E+07,
2459972.500000000, A.D. 2023-Jan-28 00:00:00.0000, 3.219742140401481E+08, -5.458448317571095E+07, -7.393495982193542E+07,
2459979.500000000, A.D. 2023-Feb-04 00:00:00.0000, 3.224563396431925E+08, -4.221920274925639E+07, -7.235941597750179E+07,
2459986.500000000, A.D. 2023-Feb-11 00:00:00.0000, 3.225153123595142E+08, -2.979846518851686E+07, -7.068886982981525E+07,
2459993.500000000, A.D. 2023-Feb-18 00:00:00.0000, 3.221447180828319E+08, -1.733798877759778E+07, -6.892412424686584E+07,
2460000.500000000, A.D. 2023-Feb-25 00:00:00.0000, 3.213386986098357E+08, -4.854032920378562E+06, -6.706617040825893E+07,
2460007.500000000, A.D. 2023-Mar-04 00:00:00.0000, 3.200919985095983E+08, 7.636619040544193E+06, -6.511619519768895E+07,
2460014.500000000, A.D. 2023-Mar-11 00:00:00.0000, 3.184000125862299E+08, 2.011668104203619E+07, -6.307558817087492E+07,
2460021.500000000, A.D. 2023-Mar-18 00:00:00.0000, 3.162588336356913E+08, 3.256838973102883E+07, -6.094594800400677E+07,
2460028.500000000, A.D. 2023-Mar-25 00:00:00.0000, 3.136653003107120E+08, 4.497353425729544E+07, -5.872908833660105E+07,
2460035.500000000, A.D. 2023-Apr-01 00:00:00.0000, 3.106170450826738E+08, 5.731349098253392E+07, -5.642704290190230E+07,
2460042.500000000, A.D. 2023-Apr-08 00:00:00.0000, 3.071125412057287E+08, 6.956926445496555E+07, -5.404206967100701E+07,
2460049.500000000, A.D. 2023-Apr-15 00:00:00.0000, 3.031511458436704E+08, 8.172153362232365E+07, -5.157665377267012E+07,
2460056.500000000, A.D. 2023-Apr-22 00:00:00.0000, 2.987331406392381E+08, 9.375070024229908E+07, -4.903350949308355E+07,
2460063.500000000, A.D. 2023-Apr-29 00:00:00.0000, 2.938597718915942E+08, 1.056369416878429E+08, -4.641558131092843E+07,
2460070.500000000, A.D. 2023-May-06 00:00:00.0000, 2.885332879934369E+08, 1.173602698082993E+08, -4.372604355491570E+07,
2460077.500000000, A.D. 2023-May-13 00:00:00.0000, 2.827569725579669E+08, 1.289005947569629E+08, -4.096829857136434E+07,
2460084.500000000, A.D. 2023-May-20 00:00:00.0000, 2.765351728779088E+08, 1.402377930165656E+08, -3.814597337892212E+07,
2460091.500000000, A.D. 2023-May-27 00:00:00.0000, 2.698733233290739E+08, 1.513517792324592E+08, -3.526291475975055E+07,
2460098.500000000, A.D. 2023-Jun-03 00:00:00.0000, 2.627779632183764E+08, 1.622225814347997E+08, -3.232318273584884E+07,
2460105.500000000, A.D. 2023-Jun-10 00:00:00.0000, 2.552567485788365E+08, 1.728304191088469E+08, -2.933104239822486E+07,
2460112.500000000, A.D. 2023-Jun-17 00:00:00.0000, 2.473184575296227E+08, 1.831557834476369E+08, -2.629095408762640E+07,
2460119.500000000, A.D. 2023-Jun-24 00:00:00.0000, 2.389729891154407E+08, 1.931795191640731E+08, -2.320756196071431E+07,
2460126.500000000, A.D. 2023-Jul-01 00:00:00.0000, 2.302313555494126E+08, 2.028829079413739E+08, -2.008568093096800E+07,
2460133.500000000, A.D. 2023-Jul-08 00:00:00.0000, 2.211056659320284E+08, 2.122477535336912E+08, -1.693028182096636E+07,
2460140.500000000, A.D. 2023-Jul-15 00:00:00.0000, 2.116091000142496E+08, 2.212564648508757E+08, -1.374647492371377E+07,
$$EOE